HTV-X1                  
1 66174U 25241A   26091.53963491  .00001271  00000+0  51596-4 0  9996
2 66174  51.6374 322.9356 0007227 261.2485  98.7678 15.32489575 24446
SZ-21 MODULE            
1 66515U 25246C   26091.28153335  .00041682  00000+0  33251-3 0  9997
2 66515  41.4741  64.1049 0002480 219.0022 141.0642 15.70350675 21628
SHENZHOU-22             
1 66645U 25272A   26091.36022109  .00024066  00000+0  27286-3 0  9991
2 66645  41.4670  70.0996 0003722  85.9086 274.2179 15.61804306281414
SOYUZ-MS 28             
1 66664U 25275A   26091.87535881  .00008649  00000+0  16662-3 0  9992
2 66664  51.6332 317.7346 0006234 261.1210  98.9072 15.48704904560018
DUPLEX                  
1 66906U 98067XS  26091.11529619  .00033711  00000+0  45047-3 0  9996
2 66906  51.6289 317.1598 0003067 216.2059 143.8726 15.57724655 18620
ISS OBJECT XT           
1 66907U 98067XT  26091.89197516  .00271653  00000+0  14895-2 0  9994
2 66907  51.6226 306.5524 0006750 231.8821 128.1571 15.78433810 18835
ISS OBJECT XU           
1 66908U 98067XU  26091.88747917  .00284033  00000+0  15333-2 0  9994
2 66908  51.6227 306.5178 0006971 231.5533 128.4842 15.78743702 18832
SILVERSAT               
1 66909U 98067XV  26091.00682861  .00386729  00000+0  15922-2 0  9994
2 66909  51.6192 309.6226 0008026 232.8926 127.1344 15.84315758 18718
ISS OBJECT XW           
1 66910U 98067XW  26091.01577969  .00210998  00000+0  12822-2 0  9999
2 66910  51.6214 311.1958 0006908 221.9549 138.0922 15.76293505 18698
ISS OBJECT XX           
1 66911U 98067XX  26091.87506797  .00647261  18197-3  17622-2 0  9995
2 66911  51.6164 303.3744 0010278 244.1070 115.8878 15.93473578 18861
ISS OBJECT XY           
1 66912U 98067XY  26091.87338559  .00121475  00000+0  10364-2 0  9995
2 66912  51.6257 309.4565 0004752 225.3322 134.7288 15.68620827 18783
KNACKSAT-2              
1 67683U 98067XZ  26090.99583651  .00046098  00000+0  70857-3 0  9999
2 67683  51.6314 320.8633 0010240 267.3943  92.5875 15.53721795  8254
